GSAT0101 (PRN E11)      
1 37846U 11060A   22080.26348833 -.00000070  00000+0  00000+0 0  9991
2 37846  56.9654  23.7338 0004149 354.9750   5.0092  1.70474919 64842
GSAT0102 (PRN E12)      
1 37847U 11060B   22079.59561810 -.00000069  00000+0  00000+0 0  9996
2 37847  56.9660  23.7515 0005258 332.2912  24.3601  1.70475255 64707
GSAT0103 (PRN E19)      
1 38857U 12055A   22079.13059449  .00000039  00000+0  00000+0 0  9999
2 38857  55.1097 144.1542 0004601 259.8613 100.1773  1.70473611 58581
GSAT0104 (PRN E20)      
1 38858U 12055B   22079.10086052  .00000039  00000+0  00000+0 0  9997
2 38858  55.1097 144.1563 0002235 251.7647 108.3015  1.70473861 58580
GSAT0201 (PRN E18)      
1 40128U 14050A   22078.19636088 -.00000065  00000+0  00000+0 0  9995
2 40128  50.3373 335.8795 1630304 120.7875 256.2694  1.85519161 49548
GSAT0202 (PRN E14)      
1 40129U 14050B   22078.99668835 -.00000066  00000+0  00000+0 0  9990
2 40129  50.3631 334.9054 1627377 121.6226 255.2819  1.85519758 51723
GSAT0203 (PRN E26)      
1 40544U 15017A   22078.87134702 -.00000069  00000+0  00000+0 0  9996
2 40544  56.7602  23.8170 0003926 285.3307  74.6115  1.70475597 42773
GSAT0204 (PRN E22)      
1 40545U 15017B   22079.12398908 -.00000069  00000+0  00000+0 0  9996
2 40545  56.7659  23.8221 0003121 275.0116  84.9389  1.70475407  5826
GSAT0205 (PRN E24)      
1 40889U 15045A   22078.30452971  .00000039  00000+0  00000+0 0  9994
2 40889  55.6847 264.4501 0005972  29.2971 330.7220  1.70473394 40572
GSAT0206 (PRN E30)      
1 40890U 15045B   22079.11189079  .00000037  00000+0  00000+0 0  9990
2 40890  55.6830 264.4237 0004114  26.9335 333.0697  1.70473403 40617
GSAT0209 (PRN E09)      
1 41174U 15079A   22079.87369394  .00000038  00000+0  00000+0 0  9997
2 41174  55.1260 143.8366 0004417 301.3589  58.6874  1.70474761 38943
GSAT0208 (PRN E08)      
1 41175U 15079B   22079.50655923  .00000038  00000+0  00000+0 0  9994
2 41175  55.1244 143.8453 0003721 299.6457  60.4075  1.70474926 38771
GSAT0211 (PRN E02)      
1 41549U 16030A   22079.62597798  .00000036  00000+0  00000+0 0  9993
2 41549  55.8292 264.3331 0004027 359.3535   0.6260  1.70474885 36258
GSAT0210 (PRN E01)      
1 41550U 16030B   22079.91865530  .00000036  00000+0  00000+0 0  9999
2 41550  55.8274 264.3264 0002165 338.2946  21.6755  1.70475057 36230
GSAT0207 (PRN E07)      
1 41859U 16069A   22079.57957680  .00000038  00000+0  00000+0 0  9995
2 41859  54.7861 144.0479 0004696 287.9421  72.0966  1.70473535 32984
GSAT0212 (PRN E03)      
1 41860U 16069B   22080.01956939  .00000036  00000+0  00000+0 0  9992
2 41860  54.7838 144.0333 0003180 307.7738  52.2861  1.70473567 33247
GSAT0213 (PRN E04)      
1 41861U 16069C   22079.21187389  .00000038  00000+0  00000+0 0  9990
2 41861  54.7858 144.0609 0004529 267.1590  92.8795  1.70473635 33094
GSAT0214 (PRN E05)      
1 41862U 16069D   22078.18578513  .00000037  00000+0  00000+0 0  9998
2 41862  54.7840 144.0840 0003585 269.4181  90.6307  1.70473730 33209
GSAT0215 (PRN E21)      
1 43055U 17079A   22079.84962325  .00000036  00000+0  00000+0 0  9997
2 43055  55.8034 264.1606 0001605 347.8158  12.1594  1.70474154 26572
GSAT0216 (PRN E25)      
1 43056U 17079B   22079.55532970  .00000036  00000+0  00000+0 0  9995
2 43056  55.8040 264.1686 0002827 313.6681  46.2884  1.70474275 26559
GSAT0217 (PRN E27)      
1 43057U 17079C   22079.18896502  .00000037  00000+0  00000+0 0  9990
2 43057  55.8014 264.1786 0003025 333.6682  26.2975  1.70474173 26563
GSAT0218 (PRN E31)      
1 43058U 17079D   22079.99555085  .00000036  00000+0  00000+0 0  9997
2 43058  55.8020 264.1536 0002999 302.8680  57.0819  1.70474201 26571
GSAT0221 (PRN E15)      
1 43564U 18060A   22079.30709323 -.00000069  00000+0  00000+0 0  9998
2 43564  57.1431  23.5980 0004909 297.4956  62.4411  1.70475421 22740
GSAT0222 (PRN E33)      
1 43565U 18060B   22077.18059087 -.00000068  00000+0  00000+0 0  9997
2 43565  57.1445  23.6558 0004842 305.0831  54.8543  1.70475455 22751
GSAT0219 (PRN E36)      
1 43566U 18060C   22079.16092567 -.00000069  00000+0  00000+0 0  9999
2 43566  57.1457  23.6042 0004483 308.1244  51.8215  1.70475431 22764
GSAT0220 (PRN E13)      
1 43567U 18060D   22079.38097552 -.00000069  00000+0  00000+0 0  9993
2 43567  57.1457  23.5991 0004500 303.2630  56.6806  1.70475220 22745
GSAT0223                
1 49809U 21116A   22078.35749900 -.00000068  00000+0  00000+0 0  9990
2 49809  57.1377  23.5256 0001245 275.0399 266.7226  1.70475472  1742
GSAT0224                
1 49810U 21116B   22079.25066742 -.00000069  00000+0  00000+0 0  9999
2 49810  57.1394  23.4994 0001131 309.7159 172.6933  1.70475378  1783
